{
  "norad_id": 61546,
  "name": "STARLINK-32445",
  "history": [
    {
      "epoch": "2026-04-18T12:43:58.598112Z",
      "apogee_km": 476.0632800865942,
      "perigee_km": 474.340350708404,
      "latitude_deg": 2.0681128988928107e-05,
      "longitude_deg": 151.46724617294396,
      "height_km": 476.09483421526016,
      "semi_major_axis_km": 6853.338815397499,
      "eccentricity": 0.0001257,
      "inclination_deg": 53.1587,
      "raan_deg": 189.1096,
      "arg_perigee_deg": 89.6719,
      "mean_anomaly_deg": 270.4426,
      "mean_motion_rev_day": 15.30204439
    },
    {
      "epoch": "2026-04-19T12:14:46.689504Z",
      "apogee_km": 476.6732582812656,
      "perigee_km": 473.77373852160235,
      "latitude_deg": -2.6090441622090997e-05,
      "longitude_deg": 153.24927054951436,
      "height_km": 476.341739109185,
      "semi_major_axis_km": 6853.360498401434,
      "eccentricity": 0.00021154,
      "inclination_deg": 53.1587,
      "raan_deg": 184.5577,
      "arg_perigee_deg": 98.7874,
      "mean_anomaly_deg": 261.3366,
      "mean_motion_rev_day": 15.30197177
    },
    {
      "epoch": "2026-04-20T11:45:36.011232Z",
      "apogee_km": 476.014496496161,
      "perigee_km": 474.54649446862913,
      "latitude_deg": -1.90224827526005e-05,
      "longitude_deg": 155.0285935505494,
      "height_km": 476.04234627435414,
      "semi_major_axis_km": 6853.417495482395,
      "eccentricity": 0.0001071,
      "inclination_deg": 53.1574,
      "raan_deg": 180.0082,
      "arg_perigee_deg": 79.3034,
      "mean_anomaly_deg": 280.8087,
      "mean_motion_rev_day": 15.30178088
    },
    {
      "epoch": "2026-04-21T20:40:42.660768Z",
      "apogee_km": 475.8828594272809,
      "perigee_km": 474.4464074049174,
      "latitude_deg": -4.292745060433198e-06,
      "longitude_deg": 13.527979420127226,
      "height_km": 475.81034720060006,
      "semi_major_axis_km": 6853.301633416099,
      "eccentricity": 0.0001048,
      "inclination_deg": 53.1571,
      "raan_deg": 173.6372,
      "arg_perigee_deg": 69.4213,
      "mean_anomaly_deg": 290.69,
      "mean_motion_rev_day": 15.30216892
    },
    {
      "epoch": "2026-04-22T09:13:07.860000Z",
      "apogee_km": 475.9093569999204,
      "perigee_km": 474.49976170799164,
      "latitude_deg": 4.209390865244233e-05,
      "longitude_deg": -177.51849729211128,
      "height_km": 475.92065285911457,
      "semi_major_axis_km": 6853.341559353956,
      "eccentricity": 0.00010284,
      "inclination_deg": 53.1563,
      "raan_deg": 171.2107,
      "arg_perigee_deg": 75.0386,
      "mean_anomaly_deg": 285.0729,
      "mean_motion_rev_day": 15.3020352
    },
    {
      "epoch": "2026-04-23T10:17:58.993728Z",
      "apogee_km": 476.0304889529925,
      "perigee_km": 474.38472677885966,
      "latitude_deg": -1.8212546466938088e-06,
      "longitude_deg": 160.38727577605619,
      "height_km": 475.7188437014552,
      "semi_major_axis_km": 6853.344607865926,
      "eccentricity": 0.00012007,
      "inclination_deg": 53.1569,
      "raan_deg": 166.3596,
      "arg_perigee_deg": 61.9621,
      "mean_anomaly_deg": 298.1501,
      "mean_motion_rev_day": 15.30202499
    },
    {
      "epoch": "2026-04-24T09:48:46.877760Z",
      "apogee_km": 476.01247093144684,
      "perigee_km": 474.44442091742076,
      "latitude_deg": 2.5288080486528723e-05,
      "longitude_deg": 162.16732082838482,
      "height_km": 476.0263858322279,
      "semi_major_axis_km": 6853.3654459244335,
      "eccentricity": 0.0001144,
      "inclination_deg": 53.158,
      "raan_deg": 161.8048,
      "arg_perigee_deg": 82.6647,
      "mean_anomaly_deg": 277.4484,
      "mean_motion_rev_day": 15.3019552
    },
    {
      "epoch": "2026-04-25T09:19:34.708224Z",
      "apogee_km": 476.01000140355336,
      "perigee_km": 474.4364698934487,
      "latitude_deg": -1.4728543863981034e-05,
      "longitude_deg": 163.95134050420515,
      "height_km": 475.9834355050936,
      "semi_major_axis_km": 6853.360235648501,
      "eccentricity": 0.0001148,
      "inclination_deg": 53.159,
      "raan_deg": 157.2538,
      "arg_perigee_deg": 79.9008,
      "mean_anomaly_deg": 280.2122,
      "mean_motion_rev_day": 15.30197265
    },
    {
      "epoch": "2026-04-26T19:48:45.740160Z",
      "apogee_km": 476.23405368626845,
      "perigee_km": 474.2975561897056,
      "latitude_deg": -6.761920366199032e-06,
      "longitude_deg": -1.4351255665831437,
      "height_km": 476.24251226331666,
      "semi_major_axis_km": 6853.402804937987,
      "eccentricity": 0.00014128,
      "inclination_deg": 53.1595,
      "raan_deg": 150.5796,
      "arg_perigee_deg": 94.6731,
      "mean_anomaly_deg": 265.4431,
      "mean_motion_rev_day": 15.30183008
    },
    {
      "epoch": "2026-04-27T08:21:10.605024Z",
      "apogee_km": 476.14721647326314,
      "perigee_km": 474.31462589114017,
      "latitude_deg": 3.108983783893044e-05,
      "longitude_deg": 167.51799005088893,
      "height_km": 476.189018215875,
      "semi_major_axis_km": 6853.367921182202,
      "eccentricity": 0.0001337,
      "inclination_deg": 53.1601,
      "raan_deg": 148.1513,
      "arg_perigee_deg": 93.7612,
      "mean_anomaly_deg": 266.3542,
      "mean_motion_rev_day": 15.30194691
    },
    {
      "epoch": "2026-04-28T09:26:02.042016Z",
      "apogee_km": 476.1158194250156,
      "perigee_km": 474.3764307878637,
      "latitude_deg": -3.0595617534085467e-05,
      "longitude_deg": 145.4201858977493,
      "height_km": 476.2341153332375,
      "semi_major_axis_km": 6853.383125106439,
      "eccentricity": 0.0001269,
      "inclination_deg": 53.1602,
      "raan_deg": 143.2979,
      "arg_perigee_deg": 95.9322,
      "mean_anomaly_deg": 264.1823,
      "mean_motion_rev_day": 15.30189599
    },
    {
      "epoch": "2026-04-29T08:56:49.931232Z",
      "apogee_km": 475.9653674328383,
      "perigee_km": 474.5191673398349,
      "latitude_deg": -3.264823734501868e-05,
      "longitude_deg": 147.20498947023484,
      "height_km": 476.0987326419488,
      "semi_major_axis_km": 6853.379267386336,
      "eccentricity": 0.00010551,
      "inclination_deg": 53.1598,
      "raan_deg": 138.7479,
      "arg_perigee_deg": 86.6794,
      "mean_anomaly_deg": 273.4327,
      "mean_motion_rev_day": 15.30190891
    },
    {
      "epoch": "2026-04-30T10:01:40.939680Z",
      "apogee_km": 475.98414434896586,
      "perigee_km": 474.4825709036104,
      "latitude_deg": 5.0345896456769865e-06,
      "longitude_deg": 125.10894898919217,
      "height_km": 476.07994905425033,
      "semi_major_axis_km": 6853.370357626288,
      "eccentricity": 0.00010955,
      "inclination_deg": 53.1597,
      "raan_deg": 133.8944,
      "arg_perigee_deg": 86.0522,
      "mean_anomaly_deg": 274.0604,
      "mean_motion_rev_day": 15.30193875
    },
    {
      "epoch": "2026-05-02T05:55:10.509024Z",
      "apogee_km": 476.19768834650677,
      "perigee_km": 474.3088939822619,
      "latitude_deg": -6.86090665149789e-05,
      "longitude_deg": 176.43752457019082,
      "height_km": 475.8791185966377,
      "semi_major_axis_km": 6853.390291164384,
      "eccentricity": 0.0001378,
      "inclination_deg": 53.1603,
      "raan_deg": 125.3988,
      "arg_perigee_deg": 73.2468,
      "mean_anomaly_deg": 286.8683,
      "mean_motion_rev_day": 15.30187199
    },
    {
      "epoch": "2026-05-03T16:24:19.991808Z",
      "apogee_km": 476.2441666836785,
      "perigee_km": 474.18679026964037,
      "latitude_deg": 5.727046431531412e-05,
      "longitude_deg": 11.058514665046836,
      "height_km": 476.0438819602237,
      "semi_major_axis_km": 6853.35247847666,
      "eccentricity": 0.0001501,
      "inclination_deg": 53.158,
      "raan_deg": 118.7255,
      "arg_perigee_deg": 86.1465,
      "mean_anomaly_deg": 273.9708,
      "mean_motion_rev_day": 15.30199863
    },
    {
      "epoch": "2026-05-04T15:55:08.891904Z",
      "apogee_km": 476.2109366509594,
      "perigee_km": 474.2851354558279,
      "latitude_deg": 4.293838075880194e-05,
      "longitude_deg": 12.83758170952434,
      "height_km": 476.0965964675457,
      "semi_major_axis_km": 6853.385036053393,
      "eccentricity": 0.0001405,
      "inclination_deg": 53.1579,
      "raan_deg": 114.174,
      "arg_perigee_deg": 87.0774,
      "mean_anomaly_deg": 273.0388,
      "mean_motion_rev_day": 15.30188959
    },
    {
      "epoch": "2026-05-04T23:45:24.875136Z",
      "apogee_km": 476.28530839065206,
      "perigee_km": 474.1977692877217,
      "latitude_deg": -9.97815876789745e-06,
      "longitude_deg": -106.5676415901969,
      "height_km": 476.1070481972895,
      "semi_major_axis_km": 6853.378538839186,
      "eccentricity": 0.0001523,
      "inclination_deg": 53.1581,
      "raan_deg": 112.6573,
      "arg_perigee_deg": 88.2426,
      "mean_anomaly_deg": 271.8749,
      "mean_motion_rev_day": 15.30191135
    },
    {
      "epoch": "2026-05-06T08:40:32.284128Z",
      "apogee_km": 476.190193950948,
      "perigee_km": 474.335115732375,
      "latitude_deg": 3.7673942063429358e-06,
      "longitude_deg": 111.92776859519189,
      "height_km": 476.3037521270793,
      "semi_major_axis_km": 6853.399654841662,
      "eccentricity": 0.00013534,
      "inclination_deg": 53.1582,
      "raan_deg": 106.2855,
      "arg_perigee_deg": 98.8886,
      "mean_anomaly_deg": 261.2268,
      "mean_motion_rev_day": 15.30184063
    },
    {
      "epoch": "2026-05-07T05:03:13.500288Z",
      "apogee_km": 476.12111616516904,
      "perigee_km": 474.31799805499213,
      "latitude_deg": 1.0159420661332896e-05,
      "longitude_deg": 161.4762367241085,
      "height_km": 475.95267422942464,
      "semi_major_axis_km": 6853.35655711008,
      "eccentricity": 0.00013155,
      "inclination_deg": 53.1596,
      "raan_deg": 102.3426,
      "arg_perigee_deg": 79.462,
      "mean_anomaly_deg": 280.6529,
      "mean_motion_rev_day": 15.30198497
    }
  ]
}